NORAD_CAT_ID,OBJECT_NAME,OBJECT_TYPE,EPOCH,MEAN_MOTION,ECCENTRICITY,INCLINATION,RA_OF_ASC_NODE,ARG_OF_PERICENTER,MEAN_ANOMALY,BSTAR,MEAN_MOTION_DOT,MEAN_MOTION_DDOT,TLE_LINE0,TLE_LINE1,TLE_LINE2,SEMIMAJOR_AXIS,PERIOD,APOGEE,PERIGEE,DECAYED
52492.0,STARLINK-3916,PAYLOAD,2024-04-28 12:50:20,15.08815867,0.0001727,53.2136,222.4535,82.9519,277.1669,-0.00027702,-4.691e-05,0.0,0 STARLINK-3916,1 52492U 22049AT  24119.53496119 -.00004691  00000-0 -27702-3 0  9997,2 52492  53.2136 222.4535 0001727  82.9519 277.1669 15.08815867109870,6917.954,95.439,541.014,538.624,0.0
52492.0,STARLINK-3916,PAYLOAD,2024-04-28 14:25:43,15.08815243,0.0001659,53.2146,222.1588,83.8275,276.2906,-0.00024104,-4.12e-05,0.0,0 STARLINK-3916,1 52492U 22049AT  24119.60120249 -.00004120  00000-0 -24104-3 0  9993,2 52492  53.2146 222.1588 0001659  83.8275 276.2906 15.08815243109725,6917.956,95.439,540.969,538.673,0.0
52492.0,STARLINK-3916,PAYLOAD,2024-04-28 23:58:03,15.08824998,0.0001793,53.2159,220.3745,83.9802,276.1394,0.00020112,2.913e-05,0.0,0 STARLINK-3916,1 52492U 22049AT  24119.99864656  .00002913  00000-0  20112-3 0  9993,2 52492  53.2159 220.3745 0001793  83.9802 276.1394 15.08824998109941,6917.926,95.439,541.032,538.551,0.0
52492.0,STARLINK-3916,PAYLOAD,2024-04-29 12:41:08,15.08848696,0.0001311,53.2141,217.9964,76.1427,283.9711,0.001232,0.00019378,0.0,0 STARLINK-3916,1 52492U 22049AT  24120.52856665  .00019378  00000-0  12320-2 0  9999,2 52492  53.2141 217.9964 0001311  76.1427 283.9711 15.08848696110021,6917.854,95.437,540.626,538.812,0.0
52492.0,STARLINK-3916,PAYLOAD,2024-04-29 14:16:31,15.08852585,0.0001332,53.2143,217.6991,75.3533,284.7607,0.0013108,0.00020642,0.0,0 STARLINK-3916,1 52492U 22049AT  24120.59480603  .00020642  00000-0  13108-2 0  9992,2 52492  53.2143 217.6991 0001332  75.3533 284.7607 15.08852585109878,6917.842,95.437,540.628,538.785,0.0
52492.0,STARLINK-3916,PAYLOAD,2024-04-30 06:10:22,15.08853458,0.0001541,53.2157,214.7257,80.5222,279.5944,0.00065922,0.00010223,0.0,0 STARLINK-3916,1 52492U 22049AT  24121.25720310  .00010223  00000-0  65922-3 0  9994,2 52492  53.2157 214.7257 0001541  80.5222 279.5944 15.08853458110138,6917.839,95.437,540.77,538.638,0.0
52492.0,STARLINK-3916,PAYLOAD,2024-04-30 12:31:54,15.08855028,0.0001401,53.2146,213.5347,85.075,275.0402,0.00045051,6.892e-05,0.0,0 STARLINK-3916,1 52492U 22049AT  24121.52216019  .00006892  00000-0  45051-3 0  9998,2 52492  53.2146 213.5347 0001401  85.0750 275.0402 15.08855028110016,6917.834,95.437,540.669,538.73,0.0
52492.0,STARLINK-3916,PAYLOAD,2024-04-30 23:39:36,15.08853928,0.0001372,53.2145,211.4531,82.887,277.2278,0.00027632,4.114e-05,0.0,0 STARLINK-3916,1 52492U 22049AT  24121.98583735  .00004114  00000-0  27632-3 0  9990,2 52492  53.2145 211.4531 0001372  82.8870 277.2278 15.08853928110249,6917.838,95.437,540.652,538.754,0.0
52492.0,STARLINK-3916,PAYLOAD,2024-05-01 12:22:41,15.08852558,0.0001355,53.2145,209.0741,83.0529,277.0617,0.00016508,2.341e-05,0.0,0 STARLINK-3916,1 52492U 22049AT  24122.51575386  .00002341  00000-0  16508-3 0  9993,2 52492  53.2145 209.0741 0001355  83.0529 277.0617 15.08852558110164,6917.842,95.437,540.644,538.77,0.0
52492.0,STARLINK-3916,PAYLOAD,2024-05-02 05:51:56,15.08835315,0.0001244,53.214,205.8028,83.1012,277.0121,-0.00011371,-2.097e-05,0.0,0 STARLINK-3916,1 52492U 22049AT  24123.24439953 -.00002097  00000-0 -11371-3 0  9996,2 52492  53.2140 205.8028 0001244  83.1012 277.0121 15.08835315110438,6917.895,95.438,540.62,538.899,0.0
52492.0,STARLINK-3916,PAYLOAD,2024-05-02 10:38:06,15.08833049,0.0001229,53.215,204.9104,86.8196,273.2936,-4.871e-05,-1.063e-05,0.0,0 STARLINK-3916,1 52492U 22049AT  24123.44312697 -.00001063  00000-0 -48710-4 0  9993,2 52492  53.2150 204.9104 0001229  86.8196 273.2936 15.08833049110300,6917.902,95.438,540.617,538.916,0.0
52492.0,STARLINK-3916,PAYLOAD,2024-05-03 12:04:13,15.08858787,0.0001332,53.2153,200.1522,85.7972,274.3172,0.0002889,4.315e-05,0.0,0 STARLINK-3916,1 52492U 22049AT  24124.50293577  .00004315  00000-0  28890-3 0  9993,2 52492  53.2153 200.1522 0001332  85.7972 274.3172 15.08858787110625,6917.823,95.436,540.609,538.767,0.0
52492.0,STARLINK-3916,PAYLOAD,2024-05-03 21:36:33,15.08838648,0.0001404,53.2151,198.3659,84.6964,275.4189,0.00010278,1.348e-05,0.0,0 STARLINK-3916,1 52492U 22049AT  24124.90039244  .00001348  00000-0  10278-3 0  9990,2 52492  53.2151 198.3659 0001404  84.6964 275.4189 15.08838648110524,6917.885,95.438,540.721,538.778,0.0
52492.0,STARLINK-3916,PAYLOAD,2024-05-04 11:55:04,15.08815125,0.0001447,53.2156,195.6934,107.1285,252.9866,-2.112e-05,-6.24e-06,0.0,0 STARLINK-3916,1 52492U 22049AT  24125.49657702 -.00000624  00000-0 -21120-4 0  9997,2 52492  53.2156 195.6934 0001447 107.1285 252.9866 15.08815125110773,6917.956,95.439,540.822,538.82,0.0
52492.0,STARLINK-3916,PAYLOAD,2024-05-05 11:45:50,15.08846942,0.0001426,53.2157,191.2322,102.5234,257.5918,-7.6475e-05,-1.505e-05,0.0,0 STARLINK-3916,1 52492U 22049AT  24126.49016272 -.00001505  00000-0 -76475-4 0  9991,2 52492  53.2157 191.2322 0001426 102.5234 257.5918 15.08846942110924,6917.859,95.437,540.711,538.738,0.0
52492.0,STARLINK-3916,PAYLOAD,2024-05-05 13:21:13,15.08848221,0.0001447,53.2157,190.935,104.4423,255.673,-5.4645e-05,-1.158e-05,0.0,0 STARLINK-3916,1 52492U 22049AT  24126.55640137 -.00001158  00000-0 -54645-4 0  9990,2 52492  53.2157 190.9350 0001447 104.4423 255.6730 15.08848221110771,6917.855,95.437,540.721,538.719,0.0
52492.0,STARLINK-3916,PAYLOAD,2024-05-06 11:36:36,15.08858597,0.0001383,53.2148,186.7714,105.9372,254.1772,0.00066827,0.00010369,0.0,0 STARLINK-3916,1 52492U 22049AT  24127.48376109  .00010369  00000-0  66827-3 0  9994,2 52492  53.2148 186.7714 0001383 105.9372 254.1772 15.08858597110919,6917.824,95.436,540.645,538.732,0.0
52492.0,STARLINK-3916,PAYLOAD,2024-05-06 21:08:55,15.08855063,0.0001436,53.2154,184.9877,92.1738,267.9418,0.00044556,6.813e-05,0.0,0 STARLINK-3916,1 52492U 22049AT  24127.88120148  .00006813  00000-0  44556-3 0  9992,2 52492  53.2154 184.9877 0001436  92.1738 267.9418 15.08855063111137,6917.834,95.437,540.693,538.706,0.0
52492.0,STARLINK-3916,PAYLOAD,2024-05-07 09:52:00,15.08847308,0.0001407,53.2149,182.6068,105.1086,255.0062,0.00014283,1.986e-05,0.0,0 STARLINK-3916,1 52492U 22049AT  24128.41112164  .00001986  00000-0  14283-3 0  9991,2 52492  53.2149 182.6068 0001407 105.1086 255.0062 15.08847308111212,6917.858,95.437,540.696,538.75,0.0
52492.0,STARLINK-3916,PAYLOAD,2024-05-08 09:42:47,15.08850109,0.0001321,53.2143,178.1474,88.9372,271.1772,0.0001841,2.644e-05,0.0,0 STARLINK-3916,1 52492U 22049AT  24129.40471945  .00002644  00000-0  18410-3 0  9994,2 52492  53.2143 178.1474 0001321  88.9372 271.1772 15.08850109111207,6917.849,95.437,540.628,538.801,0.0
52492.0,STARLINK-3916,PAYLOAD,2024-05-08 20:50:29,15.08850296,0.0001289,53.2134,176.0659,90.2134,269.9005,0.00025911,3.839e-05,0.0,0 STARLINK-3916,1 52492U 22049AT  24129.86839845  .00003839  00000-0  25911-3 0  9992,2 52492  53.2134 176.0659 0001289  90.2134 269.9005 15.08850296111430,6917.849,95.437,540.606,538.822,0.0
52492.0,STARLINK-3916,PAYLOAD,2024-05-09 09:33:34,15.08844994,0.0001468,53.2148,173.6872,91.6147,268.5014,0.00019465,2.812e-05,0.0,0 STARLINK-3916,1 52492U 22049AT  24130.39832041  .00002812  00000-0  19465-3 0  9990,2 52492  53.2148 173.6872 0001468  91.6147 268.5014 15.08844994111515,6917.865,95.437,540.746,538.715,0.0
52492.0,STARLINK-3916,PAYLOAD,2024-05-10 03:02:49,15.08843032,0.000152,53.2152,170.4148,94.7196,265.397,7.87e-05,9.65e-06,0.0,0 STARLINK-3916,1 52492U 22049AT  24131.12696165  .00000965  00000-0  78700-4 0  9992,2 52492  53.2152 170.4148 0001520  94.7196 265.3970 15.08843032111628,6917.871,95.437,540.788,538.685,0.0
52492.0,STARLINK-3916,PAYLOAD,2024-05-10 09:24:22,15.08843643,0.0001217,53.2159,169.2279,85.0727,275.0404,6.1726e-05,6.95e-06,0.0,0 STARLINK-3916,1 52492U 22049AT  24131.39192143  .00000695  00000-0  61726-4 0  9998,2 52492  53.2159 169.2279 0001217  85.0727 275.0404 15.08843643111507,6917.869,95.437,540.576,538.892,0.0
52492.0,STARLINK-3916,PAYLOAD,2024-05-11 02:53:38,15.0882995,0.000128,53.216,165.9544,83.483,276.6308,5.3726e-05,5.67e-06,0.0,0 STARLINK-3916,1 52492U 22049AT  24132.12058417  .00000567  00000-0  53726-4 0  9994,2 52492  53.2160 165.9544 0001280  83.4830 276.6308 15.08829950111778,6917.911,95.438,540.662,538.891,0.0
52492.0,STARLINK-3916,PAYLOAD,2024-05-11 12:25:54,15.08865482,0.0001359,53.2146,164.1683,84.6242,275.4905,0.00052865,8.141e-05,0.0,0 STARLINK-3916,1 52492U 22049AT  24132.51799569  .00008141  00000-0  52865-3 0  9995,2 52492  53.2146 164.1683 0001359  84.6242 275.4905 15.08865482111831,6917.803,95.436,540.608,538.727,0.0
52492.0,STARLINK-3916,PAYLOAD,2024-05-11 18:47:28,15.08837916,0.0002509,53.2141,162.9824,91.9709,268.1571,0.00017319,2.469e-05,0.0,0 STARLINK-3916,1 52492U 22049AT  24132.78297264  .00002469  00000-0  17319-3 0  9991,2 52492  53.2141 162.9824 0002509  91.9709 268.1571 15.08837916111879,6917.887,95.438,541.487,538.016,0.0
52492.0,STARLINK-3916,PAYLOAD,2024-05-12 05:55:11,15.08815112,8.11e-05,53.2139,160.8946,104.8617,255.2465,-0.00025645,-4.364e-05,0.0,0 STARLINK-3916,1 52492U 22049AT  24133.24666006 -.00004364  00000-0 -25645-3 0  9996,2 52492  53.2139 160.8946 0000811 104.8617 255.2465 15.08815112111945,6917.956,95.439,540.383,539.26,0.0
52492.0,STARLINK-3916,PAYLOAD,2024-05-12 09:05:59,15.08786086,0.0001425,53.2146,160.3051,87.4216,272.6939,-0.00077718,-0.00012617,0.0,0 STARLINK-3916,1 52492U 22049AT  24133.37915579 -.00012617  00000-0 -77718-3 0  9990,2 52492  53.2146 160.3051 0001425  87.4216 272.6939 15.08786086111966,6918.045,95.441,540.896,538.924,0.0
52492.0,STARLINK-3916,PAYLOAD,2024-05-12 18:38:18,15.08798886,0.0001622,53.2152,158.5192,82.812,277.3056,-0.00037883,-6.305e-05,0.0,0 STARLINK-3916,1 52492U 22049AT  24133.77660059 -.00006305  00000-0 -37883-3 0  9990,2 52492  53.2152 158.5192 0001622  82.8120 277.3056 15.08798886112021,6918.006,95.44,540.993,538.749,0.0
